     2.100          NAVIGATION                              RINEX VERSION / TYPE
fic2rin                                 05/03/2015 00:18:00 PGM / RUN BY / DATE
                                                            END OF HEADER
22 15  5  2 12  0  0.0  .346017535776D-03  .420641299570D-11  .000000000000D+00
     .840000000000D+02 -.556250000000D+01  .523093217504D-08 -.250139633491D+01
    -.480562448502D-06  .785881676711D-02  .111833214760D-04  .515369675255D+04
     .561600000000D+06  .182539224625D-06 -.405838853892D+00  .186264514923D-08
     .923207138437D+00  .141062500000D+03 -.205300925770D+01 -.818176937496D-08
    -.230366738556D-09  .100000000000D+01  .184200000000D+04  .000000000000D+00
     .340000000000D+01  .000000000000D+00 -.176951289177D-07  .840000000000D+02
     .554406000000D+06  .400000000000D+01
23 15  5  2 12  0  0.0 -.105704646558D-03 -.250111042988D-11  .000000000000D+00
     .590000000000D+02  .113187500000D+03  .501270879944D-08  .153912452050D+01
     .607408583164D-05  .100654177368D-01  .716559588909D-05  .515363151360D+04
     .561600000000D+06 -.465661287308D-07  .663906183089D+00  .175088644028D-06
     .948967665821D+00  .238031250000D+03 -.269107221318D+01 -.849499670785D-08
     .273582824394D-09  .100000000000D+01  .184200000000D+04  .000000000000D+00
     .240000000000D+01  .000000000000D+00 -.200234353542D-07  .590000000000D+02
     .554406000000D+06  .400000000000D+01
24 15  5  2 12  0  0.0 -.476082786918D-04 -.568434188608D-12  .000000000000D+00
     .800000000000D+02 -.368437500000D+02  .505771067395D-08  .786459421226D+00
    -.179931521416D-05  .323097896762D-02  .206008553505D-05  .515367478752D+04
     .561600000000D+06  .391155481339D-07  .169117284816D+01 -.186264514923D-08
     .953396872669D+00  .331750000000D+03  .361355220673D+00 -.862714506951D-08
    -.312513017422D-09  .100000000000D+01  .184200000000D+04  .000000000000D+00
     .340000000000D+01  .000000000000D+00  .232830643654D-08  .800000000000D+02
     .554406000000D+06  .400000000000D+01
25 15  5  2 12  0  0.0 -.252062454820D-04 -.363797880709D-11  .000000000000D+00
     .680000000000D+02 -.695625000000D+02  .380515850013D-08 -.120458095725D+01
    -.369921326637D-05  .457058008760D-02  .108703970909D-04  .515369088936D+04
     .561600000000D+06  .163912773132D-06  .275384324988D+01 -.186264514923D-08
     .978367788557D+00  .180281250000D+03  .707163172665D+00 -.766246202944D-08
    -.242152943785D-09  .100000000000D+01  .184200000000D+04  .000000000000D+00
     .240000000000D+01  .000000000000D+00  .558793544769D-08  .680000000000D+02
     .554406000000D+06  .400000000000D+01
26 15  5  2 12  0  0.0  .260183587670D-04  .420641299570D-11  .000000000000D+00
     .180000000000D+02 -.776875000000D+02  .410624247005D-08 -.302399926511D+01
    -.401213765144D-05  .263394322246D-03  .115111470222D-04  .515356971550D+04
     .561600000000D+06 -.558793544769D-07  .275170055620D+01  .577419996262D-07
     .960484742948D+00  .158937500000D+03  .116005879809D+01 -.781889711702D-08
    -.177150236161D-09  .100000000000D+01  .184200000000D+04  .000000000000D+00
     .240000000000D+01  .000000000000D+00  .745058059692D-08  .180000000000D+02
     .554406000000D+06  .400000000000D+01
27 15  5  2 12  0  0.0  .690729357302D-04  .272848410532D-11  .000000000000D+00
     .830000000000D+02  .491875000000D+02  .435982446133D-08  .282225362073D+01
     .265426933765D-05  .237753801048D-02  .855140388012D-05  .515368906212D+04
     .561600000000D+06  .931322574615D-08 -.248564257827D+01  .186264514923D-08
     .967162020397D+00  .217375000000D+03  .180359678007D+00 -.798068957061D-08
     .651455707174D-09  .100000000000D+01  .184200000000D+04  .000000000000D+00
     .240000000000D+01  .000000000000D+00  .139698386192D-08  .830000000000D+02
     .554406000000D+06  .400000000000D+01
28 15  5  2 12  0  0.0  .437016598880D-03  .261479726760D-11  .000000000000D+00
     .187000000000D+03 -.785000000000D+02  .332406703216D-08 -.272080444027D+01
    -.397674739361D-05  .195211604005D-01  .119246542454D-04  .515370067406D+04
     .561600000000D+06  .188127160072D-06  .282419343401D+01 -.242143869400D-07
     .989050459636D+00  .160562500000D+03 -.166482552385D+01 -.709886712488D-08
    -.803604901941D-10  .100000000000D+01  .184200000000D+04  .000000000000D+00
     .340000000000D+01  .000000000000D+00 -.111758708954D-07  .187000000000D+03
     .554406000000D+06  .400000000000D+01
29 15  5  2 12  0  0.0  .607944093645D-03  .238742359215D-11  .000000000000D+00
     .720000000000D+02  .449375000000D+02  .424339103998D-08 -.857166507626D+00
     .233948230743D-05  .132823397871D-02  .792555510998D-05  .515376711082D+04
     .561600000000D+06 -.104308128357D-06 -.242869702473D+01 -.372529029846D-08
     .973072573704D+00  .234250000000D+03 -.657285347944D+00 -.788104256277D-08
     .565023535498D-09  .100000000000D+01  .184200000000D+04  .000000000000D+00
     .240000000000D+01  .000000000000D+00 -.977888703346D-08  .720000000000D+02
     .554406000000D+06  .400000000000D+01
30 15  5  2 12  0  0.0 -.648088753223D-04  .466116034659D-11  .000000000000D+00
     .680000000000D+02 -.582812500000D+02  .490949021426D-08  .170288489131D+00
    -.328756868839D-05  .130960997194D-02  .241771340370D-05  .515374418640D+04
     .561600000000D+06  .447034835815D-07  .178135423566D+01  .428408384323D-07
     .955924367938D+00  .330093750000D+03  .284692639099D+01 -.853642700502D-08
    -.409659921123D-09  .100000000000D+01  .184200000000D+04  .000000000000D+00
     .240000000000D+01  .000000000000D+00  .325962901115D-08  .680000000000D+02
     .554406000000D+06  .400000000000D+01
31 15  5  2 12  0  0.0  .317030586302D-03 -.102318153949D-11  .000000000000D+00
     .700000000000D+02 -.491562500000D+02  .454947521819D-08 -.163446381775D+00
    -.263564288616D-05  .811832048930D-02  .288151204586D-05  .515376916885D+04
     .561600000000D+06  .223517417908D-07  .173929122423D+01 -.968575477600D-07
     .975069657302D+00  .333093750000D+03 -.516995411597D+00 -.842463663422D-08
    -.331442377334D-09  .100000000000D+01  .184200000000D+04  .000000000000D+00
     .240000000000D+01  .000000000000D+00 -.135041773319D-07  .700000000000D+02
     .554406000000D+06  .400000000000D+01
32 15  5  2 12  0  0.0 -.161498319358D-03  .954969436862D-11  .000000000000D+00
     .510000000000D+02  .137500000000D+02  .476555564738D-08  .480564943447D+00
     .769272446632D-06  .112677004654D-01  .120792537928D-04  .515378594780D+04
     .561600000000D+06  .221654772758D-06 -.305622161430D+00  .707805156708D-07
     .947352393601D+00  .143187500000D+03  .407189013171D-01 -.811962392921D-08
    -.258225041824D-09  .100000000000D+01  .184200000000D+04  .000000000000D+00
     .240000000000D+01  .000000000000D+00 -.372529029846D-08  .510000000000D+02
     .554406000000D+06  .400000000000D+01
14 15  5  2 11 59 44.0  .665425322950D-04 -.284217094304D-11  .000000000000D+00
     .170000000000D+02  .105343750000D+03  .447447209401D-08  .263797764958D+01
     .536628067493D-05  .802745786496D-02  .585988163948D-05  .515359064865D+04
     .561584000000D+06  .707805156708D-07  .735356404077D+00 -.104308128357D-06
     .967104510162D+00  .266593750000D+03 -.197551286505D+01 -.802569144512D-08
     .279297348141D-09  .100000000000D+01  .184200000000D+04  .000000000000D+00
     .240000000000D+01  .000000000000D+00 -.931322574615D-08  .170000000000D+02
     .554916000000D+06  .400000000000D+01
24 15  5  2 11 59 44.0 -.476082786918D-04 -.568434188608D-12  .000000000000D+00
     .500000000000D+01 -.368437500000D+02  .505771067395D-08  .784127482994D+00
    -.179931521416D-05  .323099398520D-02  .206008553505D-05  .515367478752D+04
     .561584000000D+06  .391155481339D-07  .169117299738D+01 -.186264514923D-08
     .953396881447D+00  .331750000000D+03  .361353400802D+00 -.862678791177D-08
    -.312513017422D-09  .100000000000D+01  .184200000000D+04  .000000000000D+00
     .240000000000D+01  .000000000000D+00  .232830643654D-08  .500000000000D+01
     .556026000000D+06  .400000000000D+01
 2 15  5  2 11 59 44.0  .563341658562D-03  .238742359215D-11  .000000000000D+00
     .300000000000D+01 -.226562500000D+02  .550308636849D-08  .108034876461D+01
    -.126846134663D-05  .146350257564D-01  .429153442383D-05  .515380267525D+04
     .561584000000D+06 -.165775418282D-06 -.146555677972D+01  .104308128357D-06
     .940290877792D+00  .286000000000D+03 -.227429192726D+01 -.878822320763D-08
    -.236438420038D-09  .100000000000D+01  .184200000000D+04  .000000000000D+00
     .240000000000D+01  .000000000000D+00 -.204890966415D-07  .300000000000D+01
     .559206000000D+06  .400000000000D+01
12 15  5  2 11 59 44.0  .289573799819D-03  .318323145621D-11  .000000000000D+00
     .100000000000D+01 -.658750000000D+02  .359407827922D-08 -.529878608439D+00
    -.350549817085D-05  .556050590239D-02  .107269734144D-04  .515369814873D+04
     .561584000000D+06  .782310962677D-07  .280015716771D+01  .875443220139D-07
     .989879117879D+00  .188156250000D+03  .576122528559D+00 -.763817530352D-08
    -.179650340301D-09  .100000000000D+01  .184200000000D+04  .000000000000D+00
     .240000000000D+01  .000000000000D+00 -.121071934700D-07  .100000000000D+01
     .560706000000D+06  .400000000000D+01
 2 15  5  2 13 59 44.0  .563358422369D-03  .238742359215D-11  .000000000000D+00
     .400000000000D+01 -.250000000000D+02  .529807782906D-08  .213043151552D+01
    -.136904418468D-05  .146349630086D-01  .417605042458D-05  .515380338097D+04
     .568784000000D+06 -.191852450371D-06 -.146562033912D+01 -.286847352982D-06
     .940290990437D+00  .287625000000D+03 -.227426561229D+01 -.846392398498D-08
    -.682171272315D-10  .100000000000D+01  .184200000000D+04  .000000000000D+00
     .240000000000D+01  .000000000000D+00 -.204890966415D-07  .400000000000D+01
     .561606000000D+06  .400000000000D+01
